NORAD_CAT_ID,OBJECT_NAME,OBJECT_TYPE,EPOCH,MEAN_MOTION,ECCENTRICITY,INCLINATION,RA_OF_ASC_NODE,ARG_OF_PERICENTER,MEAN_ANOMALY,BSTAR,MEAN_MOTION_DOT,MEAN_MOTION_DDOT,TLE_LINE0,TLE_LINE1,TLE_LINE2,SEMIMAJOR_AXIS,PERIOD,APOGEE,PERIGEE,DECAYED
51729.0,STARLINK-3523,PAYLOAD,2024-05-16 02:03:33,15.08865893,9.75e-05,53.2161,53.6659,117.3498,242.7593,0.00012159,1.649e-05,0.0,0 STARLINK-3523,1 51729U 22016R   24137.08580347  .00001649  00000-0  12159-3 0  9998,2 51729  53.2161  53.6659 0000975 117.3498 242.7593 15.08865893124666,6917.801,95.436,540.341,538.992,0.0
51729.0,STARLINK-3523,PAYLOAD,2024-05-16 11:35:51,15.08867189,0.0001091,53.2172,51.8792,97.0336,263.078,0.00043757,6.688e-05,0.0,0 STARLINK-3523,1 51729U 22016R   24137.48323981  .00006688  00000-0  43757-3 0  9997,2 51729  53.2172  51.8792 0001091  97.0336 263.0780 15.08867189123596,6917.797,95.436,540.417,538.908,0.0
51729.0,STARLINK-3523,PAYLOAD,2024-05-16 17:57:24,15.08843897,0.0001878,53.2182,50.6923,92.2097,267.911,-0.00022145,-3.811e-05,0.0,0 STARLINK-3523,1 51729U 22016R   24137.74820485 -.00003811  00000-0 -22145-3 0  9992,2 51729  53.2182  50.6923 0001878  92.2097 267.9110 15.08843897124764,6917.868,95.437,541.033,538.434,0.0
51729.0,STARLINK-3523,PAYLOAD,2024-05-17 11:26:38,15.08853123,0.0001172,53.2166,47.4185,109.0606,251.0514,0.00054391,8.382e-05,0.0,0 STARLINK-3523,1 51729U 22016R   24138.47683980  .00008382  00000-0  54391-3 0  9994,2 51729  53.2166  47.4185 0001172 109.0606 251.0514 15.08853123124877,6917.84,95.437,540.516,538.895,0.0
51729.0,STARLINK-3523,PAYLOAD,2024-05-17 17:48:12,15.08819947,0.0002033,53.2172,46.2293,92.0275,268.095,-0.00048148,-7.939e-05,0.0,0 STARLINK-3523,1 51729U 22016R   24138.74181272 -.00007939  00000-0 -48148-3 0  9993,2 51729  53.2172  46.2293 0002033  92.0275 268.0950 15.08819947124914,6917.942,95.439,541.213,538.4,0.0
51729.0,STARLINK-3523,PAYLOAD,2024-05-17 22:34:22,15.08817918,0.0002071,53.2175,45.3378,91.9933,268.1296,-0.0003272,-5.489e-05,0.0,0 STARLINK-3523,1 51729U 22016R   24138.94053580 -.00005489  00000-0 -32720-3 0  9992,2 51729  53.2175  45.3378 0002071  91.9933 268.1296 15.08817918123810,6917.948,95.439,541.246,538.38,0.0
51729.0,STARLINK-3523,PAYLOAD,2024-05-18 11:17:27,15.08840316,0.0001662,53.2194,42.9567,103.862,256.2558,0.00121,0.00019022,0.0,0 STARLINK-3523,1 51729U 22016R   24139.47045714  .00019022  00000-0  12100-2 0  9996,2 51729  53.2194  42.9567 0001662 103.8620 256.2558 15.08840316125027,6917.879,95.438,540.894,538.595,0.0
51729.0,STARLINK-3523,PAYLOAD,2024-05-18 22:25:09,15.08846894,0.0001814,53.2191,40.8774,98.1855,261.9343,0.00087769,0.00013711,0.0,0 STARLINK-3523,1 51729U 22016R   24139.93413796  .00013711  00000-0  87769-3 0  9999,2 51729  53.2191  40.8774 0001814  98.1855 261.9343 15.08846894123969,6917.859,95.437,540.979,538.469,0.0
51729.0,STARLINK-3523,PAYLOAD,2024-05-19 03:11:18,15.08856038,0.0001818,53.2188,39.9841,102.2633,257.8563,0.00088267,0.00013794,0.0,0 STARLINK-3523,1 51729U 22016R   24140.13285455  .00013794  00000-0  88267-3 0  9997,2 51729  53.2188  39.9841 0001818 102.2633 257.8563 15.08856038123996,6917.831,95.437,540.954,538.439,0.0
51729.0,STARLINK-3523,PAYLOAD,2024-05-19 20:40:32,15.08848355,0.0002156,53.217,36.7092,129.7718,230.3464,0.00026403,3.917e-05,0.0,0 STARLINK-3523,1 51729U 22016R   24140.86149241  .00003917  00000-0  26403-3 0  9999,2 51729  53.2170  36.7092 0002156 129.7718 230.3464 15.08848355125232,6917.855,95.437,541.211,538.228,0.0
51729.0,STARLINK-3523,PAYLOAD,2024-05-19 23:51:19,15.08846915,0.0001403,53.2177,36.1208,108.9172,251.1973,0.00014569,2.032e-05,0.0,0 STARLINK-3523,1 51729U 22016R   24140.99397464  .00002032  00000-0  14569-3 0  9992,2 51729  53.2177  36.1208 0001403 108.9172 251.1973 15.08846915124122,6917.859,95.437,540.695,538.754,0.0
51729.0,STARLINK-3523,PAYLOAD,2024-05-20 20:31:20,15.08831858,0.0001401,53.2175,32.2501,101.1106,259.0043,-5.3542e-05,-1.14e-05,0.0,0 STARLINK-3523,1 51729U 22016R   24141.85510253 -.00001140  00000-0 -53542-4 0  9997,2 51729  53.2175  32.2501 0001401 101.1106 259.0043 15.08831858125387,6917.905,95.438,540.739,538.801,0.0
51729.0,STARLINK-3523,PAYLOAD,2024-05-20 23:42:07,15.08835082,0.0001383,53.2184,31.6603,87.6976,272.4174,-7.4276e-05,-1.47e-05,0.0,0 STARLINK-3523,1 51729U 22016R   24141.98758300 -.00001470  00000-0 -74276-4 0  9991,2 51729  53.2184  31.6603 0001383  87.6976 272.4174 15.08835082124279,6917.895,95.438,540.717,538.804,0.0
51729.0,STARLINK-3523,PAYLOAD,2024-05-21 21:57:31,15.08832767,0.0001306,53.2181,27.4984,93.2205,266.8937,0.00041224,6.278e-05,0.0,0 STARLINK-3523,1 51729U 22016R   24142.91494624  .00006278  00000-0  41224-3 0  9996,2 51729  53.2181  27.4984 0001306  93.2205 266.8937 15.08832767124411,6917.902,95.438,540.671,538.864,0.0
51729.0,STARLINK-3523,PAYLOAD,2024-05-22 01:08:17,15.08844136,0.0001353,53.2184,26.9038,90.9005,269.2142,0.00026507,3.934e-05,0.0,0 STARLINK-3523,1 51729U 22016R   24143.04742077  .00003934  00000-0  26507-3 0  9992,2 51729  53.2184  26.9038 0001353  90.9005 269.2142 15.08844136125567,6917.868,95.437,540.669,538.797,0.0
51729.0,STARLINK-3523,PAYLOAD,2024-05-22 20:12:55,15.08836358,0.0001767,53.2187,23.3359,81.8291,278.2902,0.00012291,1.668e-05,0.0,0 STARLINK-3523,1 51729U 22016R   24143.84230834  .00001668  00000-0  12291-3 0  9990,2 51729  53.2187  23.3359 0001767  81.8291 278.2902 15.08836358125686,6917.892,95.438,540.979,538.534,0.0
51729.0,STARLINK-3523,PAYLOAD,2024-05-22 21:48:18,15.08837144,0.0001271,53.2177,23.038,89.9384,270.1754,0.00010919,1.45e-05,0.0,0 STARLINK-3523,1 51729U 22016R   24143.90854620  .00001450  00000-0  10919-3 0  9996,2 51729  53.2177  23.0380 0001271  89.9384 270.1754 15.08837144124564,6917.889,95.438,540.633,538.875,0.0
51729.0,STARLINK-3523,PAYLOAD,2024-05-22 23:23:41,15.08838418,0.0001277,53.2179,22.7406,87.4721,272.6417,0.00012783,1.747e-05,0.0,0 STARLINK-3523,1 51729U 22016R   24143.97478603  .00001747  00000-0  12783-3 0  9996,2 51729  53.2179  22.7406 0001277  87.4721 272.6417 15.08838418124574,6917.885,95.438,540.634,538.867,0.0
51729.0,STARLINK-3523,PAYLOAD,2024-05-23 20:03:42,15.08843204,0.0001233,53.2174,18.8756,86.4586,273.6547,4.3466e-05,4.04e-06,0.0,0 STARLINK-3523,1 51729U 22016R   24144.83590441  .00000404  00000-0  43466-4 0  9999,2 51729  53.2174  18.8756 0001233  86.4586 273.6547 15.08843204124702,6917.871,95.437,540.589,538.883,0.0
51729.0,STARLINK-3523,PAYLOAD,2024-05-24 00:49:51,15.0884757,0.0001375,53.2177,17.9804,97.268,262.8469,8.4776e-05,1.062e-05,0.0,0 STARLINK-3523,1 51729U 22016R   24145.03462175  .00001062  00000-0  84776-4 0  9994,2 51729  53.2177  17.9804 0001375  97.2680 262.8469 15.08847570125862,6917.857,95.437,540.673,538.771,0.0
51729.0,STARLINK-3523,PAYLOAD,2024-05-24 21:29:52,15.0883991,0.0001328,53.2177,14.116,85.8399,274.2745,6.952e-05,8.19e-06,0.0,0 STARLINK-3523,1 51729U 22016R   24145.89574685  .00000819  00000-0  69520-4 0  9997,2 51729  53.2177  14.1160 0001328  85.8399 274.2745 15.08839910125991,6917.881,95.438,540.664,538.827,0.0
51729.0,STARLINK-3523,PAYLOAD,2024-05-25 08:37:34,15.08841877,0.0001144,53.2171,12.0382,83.8071,276.3051,0.00011768,1.586e-05,0.0,0 STARLINK-3523,1 51729U 22016R   24146.35942598  .00001586  00000-0  11768-3 0  9993,2 51729  53.2171  12.0382 0001144  83.8071 276.3051 15.08841877124930,6917.875,95.437,540.531,538.948,0.0
51729.0,STARLINK-3523,PAYLOAD,2024-05-25 21:20:39,15.08836286,0.0001278,53.2168,9.658,106.7129,253.4004,-1.0639e-05,-4.57e-06,0.0,0 STARLINK-3523,1 51729U 22016R   24146.88934988 -.00000457  00000-0 -10639-4 0  9990,2 51729  53.2168   9.6580 0001278 106.7129 253.4004 15.08836286126142,6917.892,95.438,540.641,538.873,0.0
51729.0,STARLINK-3523,PAYLOAD,2024-05-26 21:11:38,15.0868682,0.0002612,53.217,5.2061,0.0102,0.089,-0.0016877,-0.00026937,0.0,0 STARLINK-3523,1 51729U 22016R   24147.88308817 -.00026937  00000-0 -16877-2 0  9996,2 51729  53.2170   5.2061 0002612   0.0102   0.0890 15.08686820126293,6918.349,95.447,542.021,538.407,0.0
51729.0,STARLINK-3523,PAYLOAD,2024-05-27 01:57:35,15.0884726,0.000104,53.2177,4.3092,71.6307,288.4798,0.00012645,1.726e-05,0.0,0 STARLINK-3523,1 51729U 22016R   24148.08166281  .00001726  00000-0  12645-3 0  9993,2 51729  53.2177   4.3092 0001040  71.6307 288.4798 15.08847260126329,6917.858,95.437,540.443,539.004,0.0
51729.0,STARLINK-3523,PAYLOAD,2024-05-27 14:40:41,15.08834937,0.00012,53.2188,1.9265,84.4359,275.677,0.00012685,1.731e-05,0.0,0 STARLINK-3523,1 51729U 22016R   24148.61159132  .00001731  00000-0  12685-3 0  9999,2 51729  53.2188   1.9265 0001200  84.4359 275.6770 15.08834937125271,6917.896,95.438,540.591,538.931,0.0
51729.0,STARLINK-3523,PAYLOAD,2024-05-27 19:26:51,15.08834249,0.0001236,53.2183,1.0341,70.9527,289.1599,3.9247e-05,3.37e-06,0.0,0 STARLINK-3523,1 51729U 22016R   24148.81031460  .00000337  00000-0  39247-4 0  9999,2 51729  53.2183   1.0341 0001236  70.9527 289.1599 15.08834249126432,6917.898,95.438,540.618,538.908,0.0
51729.0,STARLINK-3523,PAYLOAD,2024-05-28 06:34:33,15.08835291,0.000125,53.2182,358.9525,70.0272,290.0854,3.5452e-05,2.76e-06,0.0,0 STARLINK-3523,1 51729U 22016R   24149.27399504  .00000276  00000-0  35452-4 0  9992,2 51729  53.2182 358.9525 0001250  70.0272 290.0854 15.08835291125378,6917.895,95.438,540.625,538.895,0.0
51729.0,STARLINK-3523,PAYLOAD,2024-05-28 19:17:37,15.08842702,0.0001131,53.2176,356.5724,70.6927,289.4187,-1.2818e-05,-4.92e-06,0.0,0 STARLINK-3523,1 51729U 22016R   24149.80391017 -.00000492  00000-0 -12818-4 0  9995,2 51729  53.2176 356.5724 0001131  70.6927 289.4187 15.08842702126587,6917.872,95.437,540.52,538.955,0.0
51729.0,STARLINK-3523,PAYLOAD,2024-05-29 19:08:24,15.08837769,0.0001135,53.2173,352.108,95.0834,265.0288,6.9175e-05,8.13e-06,0.0,0 STARLINK-3523,1 51729U 22016R   24150.79751029  .00000813  00000-0  69175-4 0  9991,2 51729  53.2173 352.1080 0001135  95.0834 265.0288 15.08837769125604,6917.887,95.438,540.537,538.967,0.0
